[{"OBJECT_NAME":"SHIYAN-3 (SY-3)","OBJECT_ID":"2008-056A","EPOCH":"2026-03-09T16:28:21.411552","MEAN_MOTION":14.30765435,"ECCENTRICITY":0.00146908,"INCLINATION":98.6178,"RA_OF_ASC_NODE":96.1558,"ARG_OF_PERICENTER":69.2006,"MEAN_ANOMALY":291.0749,"EPHEMERIS_TYPE":0,"CLASSIFICATION_TYPE":"U","NORAD_CAT_ID":33433,"ELEMENT_SET_NO":999,"REV_AT_EPOCH":90457,"BSTAR":0.00010019007,"MEAN_MOTION_DOT":2.19e-6,"MEAN_MOTION_DDOT":0},{"OBJECT_NAME":"FENGYUN 1C DEB","OBJECT_ID":"1999-025AWJ","EPOCH":"2026-03-09T12:47:20.707584","MEAN_MOTION":14.35151305,"ECCENTRICITY":0.00434187,"INCLINATION":99.0605,"RA_OF_ASC_NODE":272.6118,"ARG_OF_PERICENTER":81.7922,"MEAN_ANOMALY":278.8183,"EPHEMERIS_TYPE":0,"CLASSIFICATION_TYPE":"U","NORAD_CAT_ID":30848,"ELEMENT_SET_NO":999,"REV_AT_EPOCH":98551,"BSTAR":0.0011747129,"MEAN_MOTION_DOT":3.345e-5,"MEAN_MOTION_DDOT":0}]
